{
  "norad_id": 66896,
  "name": "STARLINK-35791",
  "history": [
    {
      "epoch": "2026-03-28T20:45:02.862144Z",
      "apogee_km": 475.99524797669073,
      "perigee_km": 474.4034920713884,
      "latitude_deg": 2.384311741439309e-05,
      "longitude_deg": 157.29655138170025,
      "height_km": 476.12695205689226,
      "semi_major_axis_km": 6853.336370024039,
      "eccentricity": 0.00011613,
      "inclination_deg": 53.1592,
      "raan_deg": 294.8374,
      "arg_perigee_deg": 92.1203,
      "mean_anomaly_deg": 267.9931,
      "mean_motion_rev_day": 15.30205258
    }
  ]
}